{
    "links": {
        "self": "http://www.neowsapp.com/rest/v1/neo/3406334?api_key=iIulBulltgU6a56xZRHN4H3l9WmuAYTsLGpBGhQ2"
    },
    "id": "3406334",
    "neo_reference_id": "3406334",
    "name": "(2008 EF85)",
    "designation": "2008 EF85",
    "nasa_jpl_url": "http://ssd.jpl.nasa.gov/sbdb.cgi?sstr=3406334",
    "absolute_magnitude_h": 26.8,
    "estimated_diameter": {
        "kilometers": {
            "estimated_diameter_min": 0.0116025908,
            "estimated_diameter_max": 0.0259441818
        },
        "meters": {
            "estimated_diameter_min": 11.6025908209,
            "estimated_diameter_max": 25.9441817907
        },
        "miles": {
            "estimated_diameter_min": 0.0072095135,
            "estimated_diameter_max": 0.0161209622
        },
        "feet": {
            "estimated_diameter_min": 38.066244069,
            "estimated_diameter_max": 85.1187093863
        }
    },
    "is_potentially_hazardous_asteroid": false,
    "close_approach_data": [
        {
            "close_approach_date": "2008-03-09",
            "close_approach_date_full": "2008-Mar-09 14:05",
            "epoch_date_close_approach": 1205071500000,
            "relative_velocity": {
                "kilometers_per_second": "9.1479199243",
                "kilometers_per_hour": "32932.5117275903",
                "miles_per_hour": "20462.9820787352"
            },
            "miss_distance": {
                "astronomical": "0.0139419137",
                "lunar": "5.4234044293",
                "kilometers": "2085680.593243819",
                "miles": "1295981.8251659422"
            },
            "orbiting_body": "Earth"
        }
    ],
    "orbital_data": {
        "orbit_id": "6",
        "orbit_determination_date": "2017-04-06 09:03:59",
        "first_observation_date": "2008-03-13",
        "last_observation_date": "2008-03-15",
        "data_arc_in_days": 2,
        "observations_used": 8,
        "orbit_uncertainty": "9",
        "minimum_orbit_intersection": ".0124743",
        "jupiter_tisserand_invariant": "3.552",
        "epoch_osculation": "2454540.5",
        "eccentricity": ".5418769571558752",
        "semi_major_axis": "2.08877837640202",
        "inclination": "4.851441190972408",
        "ascending_node_longitude": "355.2848907408747",
        "orbital_period": "1102.648195880594",
        "perihelion_distance": ".9569175056243038",
        "perihelion_argument": "144.2892285000458",
        "aphelion_distance": "3.220639247179736",
        "perihelion_time": "2454511.894524333202",
        "mean_anomaly": "9.339308111616816",
        "mean_motion": ".3264867265415491",
        "equinox": "J2000",
        "orbit_class": {
            "orbit_class_type": "APO",
            "orbit_class_description": "Near-Earth asteroid orbits which cross the Earth’s orbit similar to that of 1862 Apollo",
            "orbit_class_range": "a (semi-major axis) > 1.0 AU; q (perihelion) < 1.017 AU"
        }
    },
    "is_sentry_object": false
}